QIANFAN-33              
1 61566U 24185Q   25338.66466363  .00000654  00000+0  46325-3 0  9992
2 61566  88.9803  79.7067 0006583   9.2360 350.8937 13.96542265 68035
QIANFAN-34              
1 61567U 24185R   25338.66318934  .00000792  00000+0  50783-3 0  9999
2 61567  88.9780  79.2817 0005509  14.1716 345.9618 14.02296001 68229
QIANFAN-35              
1 61568U 24185S   25338.63881844  .00001633  00000+0  65355-3 0  9998
2 61568  88.9806  77.8291 0004940 327.1473  32.9414 14.27946378 69026
QIANFAN-36              
1 61569U 24185T   25338.69603993  .00000192  00000+0  25877-3 0  9996
2 61569  88.9787  81.8813 0007563  74.9388 285.2602 13.55583772 66839
QIANFAN-37              
1 62238U 24232B   25338.69727235  .00000197  00000+0  28687-3 0  9996
2 62238  89.0028  42.1408 0002653 109.5822 250.5616 13.50975963 98080
QIANFAN-38              
1 62239U 24232C   25338.64788845  .00000195  00000+0  28331-3 0  9990
2 62239  89.0035  42.0610 0013901 211.2454 148.7873 13.50978968 98130
QIANFAN-39              
1 62240U 24232D   25338.70147054  .00000897  00000+0  37399-3 0  9993
2 62240  89.0025  38.2284 0018475 104.5626 255.7618 14.25380717100245
QIANFAN-40              
1 62241U 24232E   25338.68080095  .00000197  00000+0  28591-3 0  9999
2 62241  89.0063  41.6399 0012682 218.9899 141.0339 13.50978616 98509
